ONEWEB-0153             
1 48044U 21025C   23300.59442829  .00000227  00000+0  58559-3 0  9996
2 48044  87.9006 151.9660 0001480  82.5265 277.6033 13.13468354127052
ONEWEB-0154             
1 48045U 21025D   23300.89701986  .00000394  00000+0  10431-2 0  9993
2 48045  87.9014 151.9181 0001540  77.5807 282.5494 13.13471747127059
ONEWEB-0116             
1 48046U 21025E   23300.86317335 -.00000101  00000+0 -31251-3 0  9994
2 48046  87.9004 151.8929 0001829  74.5025 285.6306 13.13469370127197
ONEWEB-0150             
1 48047U 21025F   23300.83565422 -.00000065  00000+0 -21318-3 0  9996
2 48047  87.9011 151.9240 0001537  86.7845 273.3460 13.13467834127080
ONEWEB-0107             
1 48048U 21025G   23300.83778007 -.00000109  00000+0 -33282-3 0  9994
2 48048  87.9010 151.9219 0001525  94.2926 265.8377 13.13470820127067
ONEWEB-0101             
1 48049U 21025H   23300.87798597 -.00000570  00000+0 -15971-2 0  9991
2 48049  87.9003 151.9225 0001856  86.4832 273.6509 13.13474754127045
ONEWEB-0113             
1 48050U 21025J   23300.32145512 -.00000421  00000+0 -11889-2 0  9995
2 48050  87.8949 152.0359 0001675  73.5764 286.5550 13.13471361127056
ONEWEB-0112             
1 48051U 21025K   23300.84200305 -.00000128  00000+0 -38570-3 0  9996
2 48051  87.9009 151.9191 0001662  83.3550 276.7768 13.13470020127137
