<?xml version="1.0" encoding="UTF-8"?>
<ndm xmlns:xsi="http://www.w3.org/2001/XMLSchema-instance" xsi:noNamespaceSchemaLocation="https://sanaregistry.org/r/ndmxml_unqualified/ndmxml-2.0.0-master-2.0.xsd">
<omm id="CCSDS_OMM_VERS" version="2.0">
<header><CREATION_DATE/><ORIGINATOR/></header><body><segment><metadata><OBJECT_NAME>ONEWEB-0153</OBJECT_NAME><OBJECT_ID>2021-025C</OBJECT_ID><CENTER_NAME>EARTH</CENTER_NAME><REF_FRAME>TEME</REF_FRAME><TIME_SYSTEM>UTC</TIME_SYSTEM><MEAN_ELEMENT_THEORY>SGP4</MEAN_ELEMENT_THEORY></metadata><data><meanElements><EPOCH>2023-10-27T14:15:58.604256</EPOCH><MEAN_MOTION>13.13468354</MEAN_MOTION><ECCENTRICITY>.000148</ECCENTRICITY><INCLINATION>87.9006</INCLINATION><RA_OF_ASC_NODE>151.9660</RA_OF_ASC_NODE><ARG_OF_PERICENTER>82.5265</ARG_OF_PERICENTER><MEAN_ANOMALY>277.6033</MEAN_ANOMALY></meanElements><tleParameters><EPHEMERIS_TYPE>0</EPHEMERIS_TYPE><CLASSIFICATION_TYPE>U</CLASSIFICATION_TYPE><NORAD_CAT_ID>48044</NORAD_CAT_ID><ELEMENT_SET_NO>999</ELEMENT_SET_NO><REV_AT_EPOCH>12705</REV_AT_EPOCH><BSTAR>.58559E-3</BSTAR><MEAN_MOTION_DOT>.227E-5</MEAN_MOTION_DOT><MEAN_MOTION_DDOT>0</MEAN_MOTION_DDOT></tleParameters></data></segment></body></omm>
<omm id="CCSDS_OMM_VERS" version="2.0">
<header><CREATION_DATE/><ORIGINATOR/></header><body><segment><metadata><OBJECT_NAME>ONEWEB-0154</OBJECT_NAME><OBJECT_ID>2021-025D</OBJECT_ID><CENTER_NAME>EARTH</CENTER_NAME><REF_FRAME>TEME</REF_FRAME><TIME_SYSTEM>UTC</TIME_SYSTEM><MEAN_ELEMENT_THEORY>SGP4</MEAN_ELEMENT_THEORY></metadata><data><meanElements><EPOCH>2023-10-27T21:31:42.515904</EPOCH><MEAN_MOTION>13.13471747</MEAN_MOTION><ECCENTRICITY>.000154</ECCENTRICITY><INCLINATION>87.9014</INCLINATION><RA_OF_ASC_NODE>151.9181</RA_OF_ASC_NODE><ARG_OF_PERICENTER>77.5807</ARG_OF_PERICENTER><MEAN_ANOMALY>282.5494</MEAN_ANOMALY></meanElements><tleParameters><EPHEMERIS_TYPE>0</EPHEMERIS_TYPE><CLASSIFICATION_TYPE>U</CLASSIFICATION_TYPE><NORAD_CAT_ID>48045</NORAD_CAT_ID><ELEMENT_SET_NO>999</ELEMENT_SET_NO><REV_AT_EPOCH>12705</REV_AT_EPOCH><BSTAR>.10431E-2</BSTAR><MEAN_MOTION_DOT>.394E-5</MEAN_MOTION_DOT><MEAN_MOTION_DDOT>0</MEAN_MOTION_DDOT></tleParameters></data></segment></body></omm>
<omm id="CCSDS_OMM_VERS" version="2.0">
<header><CREATION_DATE/><ORIGINATOR/></header><body><segment><metadata><OBJECT_NAME>ONEWEB-0116</OBJECT_NAME><OBJECT_ID>2021-025E</OBJECT_ID><CENTER_NAME>EARTH</CENTER_NAME><REF_FRAME>TEME</REF_FRAME><TIME_SYSTEM>UTC</TIME_SYSTEM><MEAN_ELEMENT_THEORY>SGP4</MEAN_ELEMENT_THEORY></metadata><data><meanElements><EPOCH>2023-10-27T20:42:58.177440</EPOCH><MEAN_MOTION>13.13469370</MEAN_MOTION><ECCENTRICITY>.0001829</ECCENTRICITY><INCLINATION>87.9004</INCLINATION><RA_OF_ASC_NODE>151.8929</RA_OF_ASC_NODE><ARG_OF_PERICENTER>74.5025</ARG_OF_PERICENTER><MEAN_ANOMALY>285.6306</MEAN_ANOMALY></meanElements><tleParameters><EPHEMERIS_TYPE>0</EPHEMERIS_TYPE><CLASSIFICATION_TYPE>U</CLASSIFICATION_TYPE><NORAD_CAT_ID>48046</NORAD_CAT_ID><ELEMENT_SET_NO>999</ELEMENT_SET_NO><REV_AT_EPOCH>12719</REV_AT_EPOCH><BSTAR>-.31251E-3</BSTAR><MEAN_MOTION_DOT>-.101E-5</MEAN_MOTION_DOT><MEAN_MOTION_DDOT>0</MEAN_MOTION_DDOT></tleParameters></data></segment></body></omm>
<omm id="CCSDS_OMM_VERS" version="2.0">
<header><CREATION_DATE/><ORIGINATOR/></header><body><segment><metadata><OBJECT_NAME>ONEWEB-0150</OBJECT_NAME><OBJECT_ID>2021-025F</OBJECT_ID><CENTER_NAME>EARTH</CENTER_NAME><REF_FRAME>TEME</REF_FRAME><TIME_SYSTEM>UTC</TIME_SYSTEM><MEAN_ELEMENT_THEORY>SGP4</MEAN_ELEMENT_THEORY></metadata><data><meanElements><EPOCH>2023-10-27T20:03:20.524608</EPOCH><MEAN_MOTION>13.13467834</MEAN_MOTION><ECCENTRICITY>.0001537</ECCENTRICITY><INCLINATION>87.9011</INCLINATION><RA_OF_ASC_NODE>151.9240</RA_OF_ASC_NODE><ARG_OF_PERICENTER>86.7845</ARG_OF_PERICENTER><MEAN_ANOMALY>273.3460</MEAN_ANOMALY></meanElements><tleParameters><EPHEMERIS_TYPE>0</EPHEMERIS_TYPE><CLASSIFICATION_TYPE>U</CLASSIFICATION_TYPE><NORAD_CAT_ID>48047</NORAD_CAT_ID><ELEMENT_SET_NO>999</ELEMENT_SET_NO><REV_AT_EPOCH>12708</REV_AT_EPOCH><BSTAR>-.21318E-3</BSTAR><MEAN_MOTION_DOT>-.65E-6</MEAN_MOTION_DOT><MEAN_MOTION_DDOT>0</MEAN_MOTION_DDOT></tleParameters></data></segment></body></omm>
<omm id="CCSDS_OMM_VERS" version="2.0">
<header><CREATION_DATE/><ORIGINATOR/></header><body><segment><metadata><OBJECT_NAME>ONEWEB-0107</OBJECT_NAME><OBJECT_ID>2021-025G</OBJECT_ID><CENTER_NAME>EARTH</CENTER_NAME><REF_FRAME>TEME</REF_FRAME><TIME_SYSTEM>UTC</TIME_SYSTEM><MEAN_ELEMENT_THEORY>SGP4</MEAN_ELEMENT_THEORY></metadata><data><meanElements><EPOCH>2023-10-27T20:06:24.198048</EPOCH><MEAN_MOTION>13.13470820</MEAN_MOTION><ECCENTRICITY>.0001525</ECCENTRICITY><INCLINATION>87.9010</INCLINATION><RA_OF_ASC_NODE>151.9219</RA_OF_ASC_NODE><ARG_OF_PERICENTER>94.2926</ARG_OF_PERICENTER><MEAN_ANOMALY>265.8377</MEAN_ANOMALY></meanElements><tleParameters><EPHEMERIS_TYPE>0</EPHEMERIS_TYPE><CLASSIFICATION_TYPE>U</CLASSIFICATION_TYPE><NORAD_CAT_ID>48048</NORAD_CAT_ID><ELEMENT_SET_NO>999</ELEMENT_SET_NO><REV_AT_EPOCH>12706</REV_AT_EPOCH><BSTAR>-.33282E-3</BSTAR><MEAN_MOTION_DOT>-.109E-5</MEAN_MOTION_DOT><MEAN_MOTION_DDOT>0</MEAN_MOTION_DDOT></tleParameters></data></segment></body></omm>
<omm id="CCSDS_OMM_VERS" version="2.0">
<header><CREATION_DATE/><ORIGINATOR/></header><body><segment><metadata><OBJECT_NAME>ONEWEB-0101</OBJECT_NAME><OBJECT_ID>2021-025H</OBJECT_ID><CENTER_NAME>EARTH</CENTER_NAME><REF_FRAME>TEME</REF_FRAME><TIME_SYSTEM>UTC</TIME_SYSTEM><MEAN_ELEMENT_THEORY>SGP4</MEAN_ELEMENT_THEORY></metadata><data><meanElements><EPOCH>2023-10-27T21:04:17.987808</EPOCH><MEAN_MOTION>13.13474754</MEAN_MOTION><ECCENTRICITY>.0001856</ECCENTRICITY><INCLINATION>87.9003</INCLINATION><RA_OF_ASC_NODE>151.9225</RA_OF_ASC_NODE><ARG_OF_PERICENTER>86.4832</ARG_OF_PERICENTER><MEAN_ANOMALY>273.6509</MEAN_ANOMALY></meanElements><tleParameters><EPHEMERIS_TYPE>0</EPHEMERIS_TYPE><CLASSIFICATION_TYPE>U</CLASSIFICATION_TYPE><NORAD_CAT_ID>48049</NORAD_CAT_ID><ELEMENT_SET_NO>999</ELEMENT_SET_NO><REV_AT_EPOCH>12704</REV_AT_EPOCH><BSTAR>-.15971E-2</BSTAR><MEAN_MOTION_DOT>-.57E-5</MEAN_MOTION_DOT><MEAN_MOTION_DDOT>0</MEAN_MOTION_DDOT></tleParameters></data></segment></body></omm>
<omm id="CCSDS_OMM_VERS" version="2.0">
<header><CREATION_DATE/><ORIGINATOR/></header><body><segment><metadata><OBJECT_NAME>ONEWEB-0113</OBJECT_NAME><OBJECT_ID>2021-025J</OBJECT_ID><CENTER_NAME>EARTH</CENTER_NAME><REF_FRAME>TEME</REF_FRAME><TIME_SYSTEM>UTC</TIME_SYSTEM><MEAN_ELEMENT_THEORY>SGP4</MEAN_ELEMENT_THEORY></metadata><data><meanElements><EPOCH>2023-10-27T07:42:53.722368</EPOCH><MEAN_MOTION>13.13471361</MEAN_MOTION><ECCENTRICITY>.0001675</ECCENTRICITY><INCLINATION>87.8949</INCLINATION><RA_OF_ASC_NODE>152.0359</RA_OF_ASC_NODE><ARG_OF_PERICENTER>73.5764</ARG_OF_PERICENTER><MEAN_ANOMALY>286.5550</MEAN_ANOMALY></meanElements><tleParameters><EPHEMERIS_TYPE>0</EPHEMERIS_TYPE><CLASSIFICATION_TYPE>U</CLASSIFICATION_TYPE><NORAD_CAT_ID>48050</NORAD_CAT_ID><ELEMENT_SET_NO>999</ELEMENT_SET_NO><REV_AT_EPOCH>12705</REV_AT_EPOCH><BSTAR>-.11889E-2</BSTAR><MEAN_MOTION_DOT>-.421E-5</MEAN_MOTION_DOT><MEAN_MOTION_DDOT>0</MEAN_MOTION_DDOT></tleParameters></data></segment></body></omm>
<omm id="CCSDS_OMM_VERS" version="2.0">
<header><CREATION_DATE/><ORIGINATOR/></header><body><segment><metadata><OBJECT_NAME>ONEWEB-0112</OBJECT_NAME><OBJECT_ID>2021-025K</OBJECT_ID><CENTER_NAME>EARTH</CENTER_NAME><REF_FRAME>TEME</REF_FRAME><TIME_SYSTEM>UTC</TIME_SYSTEM><MEAN_ELEMENT_THEORY>SGP4</MEAN_ELEMENT_THEORY></metadata><data><meanElements><EPOCH>2023-10-27T20:12:29.063520</EPOCH><MEAN_MOTION>13.13470020</MEAN_MOTION><ECCENTRICITY>.0001662</ECCENTRICITY><INCLINATION>87.9009</INCLINATION><RA_OF_ASC_NODE>151.9191</RA_OF_ASC_NODE><ARG_OF_PERICENTER>83.3550</ARG_OF_PERICENTER><MEAN_ANOMALY>276.7768</MEAN_ANOMALY></meanElements><tleParameters><EPHEMERIS_TYPE>0</EPHEMERIS_TYPE><CLASSIFICATION_TYPE>U</CLASSIFICATION_TYPE><NORAD_CAT_ID>48051</NORAD_CAT_ID><ELEMENT_SET_NO>999</ELEMENT_SET_NO><REV_AT_EPOCH>12713</REV_AT_EPOCH><BSTAR>-.3857E-3</BSTAR><MEAN_MOTION_DOT>-.128E-5</MEAN_MOTION_DOT><MEAN_MOTION_DDOT>0</MEAN_MOTION_DDOT></tleParameters></data></segment></body></omm>

</ndm>
